[{"OBJECT_NAME":"ONEWEB-0182","OBJECT_ID":"2021-031U","EPOCH":"2025-09-13T04:32:56.563584","MEAN_MOTION":13.14503516,"ECCENTRICITY":0.00020903,"INCLINATION":87.9087,"RA_OF_ASC_NODE":344.8699,"ARG_OF_PERICENTER":97.5287,"MEAN_ANOMALY":262.6081,"EPHEMERIS_TYPE":0,"CLASSIFICATION_TYPE":"U","NORAD_CAT_ID":48228,"ELEMENT_SET_NO":999,"REV_AT_EPOCH":21204,"BSTAR":-0.00020015821,"MEAN_MOTION_DOT":-6.1e-7,"MEAN_MOTION_DDOT":0},{"OBJECT_NAME":"ONEWEB-0186","OBJECT_ID":"2021-031V","EPOCH":"2025-09-13T04:48:55.467936","MEAN_MOTION":13.14504527,"ECCENTRICITY":0.00019027,"INCLINATION":87.9094,"RA_OF_ASC_NODE":344.8308,"ARG_OF_PERICENTER":103.4282,"MEAN_ANOMALY":256.706,"EPHEMERIS_TYPE":0,"CLASSIFICATION_TYPE":"U","NORAD_CAT_ID":48229,"ELEMENT_SET_NO":999,"REV_AT_EPOCH":21199,"BSTAR":-0.0002821064,"MEAN_MOTION_DOT":-9.2e-7,"MEAN_MOTION_DDOT":0},{"OBJECT_NAME":"ONEWEB-0181","OBJECT_ID":"2021-031W","EPOCH":"2025-09-12T15:29:41.293248","MEAN_MOTION":13.14502228,"ECCENTRICITY":0.00017745,"INCLINATION":87.9078,"RA_OF_ASC_NODE":345.0115,"ARG_OF_PERICENTER":106.069,"MEAN_ANOMALY":254.0635,"EPHEMERIS_TYPE":0,"CLASSIFICATION_TYPE":"U","NORAD_CAT_ID":48230,"ELEMENT_SET_NO":999,"REV_AT_EPOCH":21177,"BSTAR":-0.00023163425,"MEAN_MOTION_DOT":-7.3e-7,"MEAN_MOTION_DDOT":0},{"OBJECT_NAME":"ONEWEB-0188","OBJECT_ID":"2021-031X","EPOCH":"2025-09-12T23:42:55.385856","MEAN_MOTION":13.14504153,"ECCENTRICITY":0.00018818,"INCLINATION":87.9082,"RA_OF_ASC_NODE":344.9362,"ARG_OF_PERICENTER":101.5639,"MEAN_ANOMALY":258.5702,"EPHEMERIS_TYPE":0,"CLASSIFICATION_TYPE":"U","NORAD_CAT_ID":48231,"ELEMENT_SET_NO":999,"REV_AT_EPOCH":21172,"BSTAR":0.00015529121,"MEAN_MOTION_DOT":7.0e-7,"MEAN_MOTION_DDOT":0},{"OBJECT_NAME":"ONEWEB-0220","OBJECT_ID":"2021-031Y","EPOCH":"2025-09-12T17:21:34.945632","MEAN_MOTION":13.14503499,"ECCENTRICITY":0.00020187,"INCLINATION":87.9091,"RA_OF_ASC_NODE":344.9268,"ARG_OF_PERICENTER":105.1479,"MEAN_ANOMALY":254.9874,"EPHEMERIS_TYPE":0,"CLASSIFICATION_TYPE":"U","NORAD_CAT_ID":48232,"ELEMENT_SET_NO":999,"REV_AT_EPOCH":21195,"BSTAR":0.00012155688,"MEAN_MOTION_DOT":5.8e-7,"MEAN_MOTION_DDOT":0},{"OBJECT_NAME":"ONEWEB-0165","OBJECT_ID":"2021-031Z","EPOCH":"2025-09-13T05:00:19.871712","MEAN_MOTION":13.14502152,"ECCENTRICITY":0.00019213,"INCLINATION":87.9071,"RA_OF_ASC_NODE":344.8714,"ARG_OF_PERICENTER":105.8271,"MEAN_ANOMALY":254.307,"EPHEMERIS_TYPE":0,"CLASSIFICATION_TYPE":"U","NORAD_CAT_ID":48233,"ELEMENT_SET_NO":999,"REV_AT_EPOCH":21197,"BSTAR":-0.00039869045,"MEAN_MOTION_DOT":-1.35e-6,"MEAN_MOTION_DDOT":0},{"OBJECT_NAME":"ONEWEB-0199","OBJECT_ID":"2021-031AA","EPOCH":"2025-09-13T04:37:30.033408","MEAN_MOTION":13.14504229,"ECCENTRICITY":0.00017712,"INCLINATION":87.9083,"RA_OF_ASC_NODE":344.8406,"ARG_OF_PERICENTER":96.4811,"MEAN_ANOMALY":263.652,"EPHEMERIS_TYPE":0,"CLASSIFICATION_TYPE":"U","NORAD_CAT_ID":48234,"ELEMENT_SET_NO":999,"REV_AT_EPOCH":21187,"BSTAR":-0.00020801375,"MEAN_MOTION_DOT":-6.4e-7,"MEAN_MOTION_DDOT":0},{"OBJECT_NAME":"ONEWEB-0203","OBJECT_ID":"2021-031AB","EPOCH":"2025-09-12T15:36:31.316544","MEAN_MOTION":13.14502603,"ECCENTRICITY":0.00015766,"INCLINATION":87.908,"RA_OF_ASC_NODE":344.9499,"ARG_OF_PERICENTER":101.1369,"MEAN_ANOMALY":258.9938,"EPHEMERIS_TYPE":0,"CLASSIFICATION_TYPE":"U","NORAD_CAT_ID":48235,"ELEMENT_SET_NO":999,"REV_AT_EPOCH":21181,"BSTAR":-0.000751062,"MEAN_MOTION_DOT":-2.66e-6,"MEAN_MOTION_DDOT":0},{"OBJECT_NAME":"ONEWEB-0197","OBJECT_ID":"2021-031AC","EPOCH":"2025-09-13T05:36:42.561216","MEAN_MOTION":13.14503574,"ECCENTRICITY":0.00021755,"INCLINATION":87.9081,"RA_OF_ASC_NODE":344.8322,"ARG_OF_PERICENTER":96.8088,"MEAN_ANOMALY":263.3289,"EPHEMERIS_TYPE":0,"CLASSIFICATION_TYPE":"U","NORAD_CAT_ID":48236,"ELEMENT_SET_NO":999,"REV_AT_EPOCH":21180,"BSTAR":0.00068881908,"MEAN_MOTION_DOT":2.68e-6,"MEAN_MOTION_DDOT":0},{"OBJECT_NAME":"ONEWEB-0194","OBJECT_ID":"2021-031AD","EPOCH":"2025-09-13T05:07:11.339616","MEAN_MOTION":13.14503583,"ECCENTRICITY":0.00016848,"INCLINATION":87.9088,"RA_OF_ASC_NODE":344.8505,"ARG_OF_PERICENTER":94.3783,"MEAN_ANOMALY":265.7539,"EPHEMERIS_TYPE":0,"CLASSIFICATION_TYPE":"U","NORAD_CAT_ID":48237,"ELEMENT_SET_NO":999,"REV_AT_EPOCH":21197,"BSTAR":-0.00024837491,"MEAN_MOTION_DOT":-7.9e-7,"MEAN_MOTION_DDOT":0},{"OBJECT_NAME":"ONEWEB-0193","OBJECT_ID":"2021-031AE","EPOCH":"2025-09-13T05:30:02.435040","MEAN_MOTION":13.14503822,"ECCENTRICITY":0.00016092,"INCLINATION":87.9072,"RA_OF_ASC_NODE":344.8488,"ARG_OF_PERICENTER":87.6046,"MEAN_ANOMALY":272.5268,"EPHEMERIS_TYPE":0,"CLASSIFICATION_TYPE":"U","NORAD_CAT_ID":48238,"ELEMENT_SET_NO":999,"REV_AT_EPOCH":21192,"BSTAR":0.00056047654,"MEAN_MOTION_DOT":2.21e-6,"MEAN_MOTION_DDOT":0},{"OBJECT_NAME":"ONEWEB-0191","OBJECT_ID":"2021-031AF","EPOCH":"2025-09-13T05:46:00.509088","MEAN_MOTION":13.14504689,"ECCENTRICITY":0.00018053,"INCLINATION":87.9093,"RA_OF_ASC_NODE":344.8239,"ARG_OF_PERICENTER":97.8916,"MEAN_ANOMALY":262.2419,"EPHEMERIS_TYPE":0,"CLASSIFICATION_TYPE":"U","NORAD_CAT_ID":48239,"ELEMENT_SET_NO":999,"REV_AT_EPOCH":21178,"BSTAR":0.00073581391,"MEAN_MOTION_DOT":2.86e-6,"MEAN_MOTION_DDOT":0},{"OBJECT_NAME":"ONEWEB-0195","OBJECT_ID":"2021-031AG","EPOCH":"2025-09-13T05:12:52.654176","MEAN_MOTION":13.14502674,"ECCENTRICITY":0.00018352,"INCLINATION":87.9089,"RA_OF_ASC_NODE":344.8255,"ARG_OF_PERICENTER":112.9143,"MEAN_ANOMALY":247.2181,"EPHEMERIS_TYPE":0,"CLASSIFICATION_TYPE":"U","NORAD_CAT_ID":48240,"ELEMENT_SET_NO":999,"REV_AT_EPOCH":21176,"BSTAR":-0.00063630602,"MEAN_MOTION_DOT":-2.23e-6,"MEAN_MOTION_DDOT":0},{"OBJECT_NAME":"ONEWEB-0201","OBJECT_ID":"2021-031AH","EPOCH":"2025-09-12T12:29:27.836448","MEAN_MOTION":13.14504308,"ECCENTRICITY":0.00021512,"INCLINATION":87.909,"RA_OF_ASC_NODE":345.013,"ARG_OF_PERICENTER":105.6912,"MEAN_ANOMALY":254.4455,"EPHEMERIS_TYPE":0,"CLASSIFICATION_TYPE":"U","NORAD_CAT_ID":48241,"ELEMENT_SET_NO":999,"REV_AT_EPOCH":21190,"BSTAR":-0.00019821007,"MEAN_MOTION_DOT":-6.1e-7,"MEAN_MOTION_DDOT":0},{"OBJECT_NAME":"ONEWEB-0207","OBJECT_ID":"2021-031AJ","EPOCH":"2025-09-13T06:16:42.392064","MEAN_MOTION":13.14586591,"ECCENTRICITY":0.00039923,"INCLINATION":87.9102,"RA_OF_ASC_NODE":344.8243,"ARG_OF_PERICENTER":91.9988,"MEAN_ANOMALY":268.1599,"EPHEMERIS_TYPE":0,"CLASSIFICATION_TYPE":"U","NORAD_CAT_ID":48242,"ELEMENT_SET_NO":999,"REV_AT_EPOCH":21191,"BSTAR":0.032907629,"MEAN_MOTION_DOT":0.00012245,"MEAN_MOTION_DDOT":0},{"OBJECT_NAME":"ONEWEB-0208","OBJECT_ID":"2021-031AK","EPOCH":"2025-09-13T00:21:44.709120","MEAN_MOTION":13.14503446,"ECCENTRICITY":0.00017661,"INCLINATION":87.9088,"RA_OF_ASC_NODE":344.8876,"ARG_OF_PERICENTER":105.9147,"MEAN_ANOMALY":254.2177,"EPHEMERIS_TYPE":0,"CLASSIFICATION_TYPE":"U","NORAD_CAT_ID":48243,"ELEMENT_SET_NO":999,"REV_AT_EPOCH":21189,"BSTAR":0.00043485462,"MEAN_MOTION_DOT":1.74e-6,"MEAN_MOTION_DDOT":0}]
