ONEWEB-0182             
1 48228U 21031U   25256.18954356 -.00000061  00000+0 -20016-3 0  9992
2 48228  87.9087 344.8699 0002090  97.5287 262.6081 13.14503516212040
ONEWEB-0186             
1 48229U 21031V   25256.20064199 -.00000092  00000+0 -28211-3 0  9992
2 48229  87.9094 344.8308 0001902 103.4282 256.7060 13.14504527211996
ONEWEB-0181             
1 48230U 21031W   25255.64561682 -.00000073  00000+0 -23163-3 0  9990
2 48230  87.9078 345.0115 0001774 106.0690 254.0635 13.14502228211779
ONEWEB-0188             
1 48231U 21031X   25255.98814104  .00000070  00000+0  15529-3 0  9990
2 48231  87.9082 344.9362 0001881 101.5639 258.5702 13.14504153211727
ONEWEB-0220             
1 48232U 21031Y   25255.72332113  .00000058  00000+0  12156-3 0  9997
2 48232  87.9091 344.9268 0002018 105.1479 254.9874 13.14503499211955
ONEWEB-0165             
1 48233U 21031Z   25256.20856333 -.00000135  00000+0 -39869-3 0  9995
2 48233  87.9071 344.8714 0001921 105.8271 254.3070 13.14502152211977
ONEWEB-0199             
1 48234U 21031AA  25256.19270872 -.00000064  00000+0 -20801-3 0  9999
2 48234  87.9083 344.8406 0001771  96.4811 263.6520 13.14504229211876
ONEWEB-0203             
1 48235U 21031AB  25255.65036246 -.00000266  00000+0 -75106-3 0  9997
2 48235  87.9080 344.9499 0001576 101.1369 258.9938 13.14502603211810
ONEWEB-0197             
1 48236U 21031AC  25256.23382594  .00000268  00000+0  68882-3 0  9996
2 48236  87.9081 344.8322 0002175  96.8088 263.3289 13.14503574211806
ONEWEB-0194             
1 48237U 21031AD  25256.21332569 -.00000079  00000+0 -24837-3 0  9996
2 48237  87.9088 344.8505 0001684  94.3783 265.7539 13.14503583211978
ONEWEB-0193             
1 48238U 21031AE  25256.22919485  .00000221  00000+0  56048-3 0  9992
2 48238  87.9072 344.8488 0001609  87.6046 272.5268 13.14503822211922
ONEWEB-0191             
1 48239U 21031AF  25256.24028367  .00000286  00000+0  73581-3 0  9997
2 48239  87.9093 344.8239 0001805  97.8916 262.2419 13.14504689211787
ONEWEB-0195             
1 48240U 21031AG  25256.21727609 -.00000223  00000+0 -63631-3 0  9999
2 48240  87.9089 344.8255 0001835 112.9143 247.2181 13.14502674211765
ONEWEB-0201             
1 48241U 21031AH  25255.52046107 -.00000061  00000+0 -19821-3 0  9992
2 48241  87.9090 345.0130 0002151 105.6912 254.4455 13.14504308211904
ONEWEB-0207             
1 48242U 21031AJ  25256.26160176  .00012245  00000+0  32908-1 0  9992
2 48242  87.9102 344.8243 0003992  91.9988 268.1599 13.14586591211911
ONEWEB-0208             
1 48243U 21031AK  25256.01510080  .00000174  00000+0  43485-3 0  9991
2 48243  87.9088 344.8876 0001766 105.9147 254.2177 13.14503446211890
